$$SOE
2460728.500000000, A.D. 2025-Feb-22 00:00:00.0000, -4.484871433669151E+08, -9.003864917379418E+07, -8.004283636384685E+06,
2460735.500000000, A.D. 2025-Mar-01 00:00:00.0000, -4.458127035222292E+08, -9.968543559117663E+07, -8.050252250537977E+06,
2460742.500000000, A.D. 2025-Mar-08 00:00:00.0000, -4.429113398678064E+08, -1.092815333621967E+08, -8.092123395214282E+06,
2460749.500000000, A.D. 2025-Mar-15 00:00:00.0000, -4.397835947389209E+08, -1.188218266805201E+08, -8.129859059671193E+06,
2460756.500000000, A.D. 2025-Mar-22 00:00:00.0000, -4.364301148899249E+08, -1.283011791566379E+08, -8.163422467807449E+06,
2460763.500000000, A.D. 2025-Mar-29 00:00:00.0000, -4.328516540678735E+08, -1.377144370393707E+08, -8.192778183904588E+06,
2460770.500000000, A.D. 2025-Apr-05 00:00:00.0000, -4.290490739201553E+08, -1.470564316310272E+08, -8.217892301941574E+06,
2460777.500000000, A.D. 2025-Apr-12 00:00:00.0000, -4.250233451553483E+08, -1.563219807937189E+08, -8.238732533180811E+06,
2460784.500000000, A.D. 2025-Apr-19 00:00:00.0000, -4.207755491380137E+08, -1.655058904325001E+08, -8.255268247020051E+06,
2460791.500000000, A.D. 2025-Apr-26 00:00:00.0000, -4.163068796418195E+08, -1.746029561643296E+08, -8.267470507027619E+06,
2460798.500000000, A.D. 2025-May-03 00:00:00.0000, -4.116186446455594E+08, -1.836079651594976E+08, -8.275312111486673E+06,
2460805.500000000, A.D. 2025-May-10 00:00:00.0000, -4.067122681426181E+08, -1.925156981516497E+08, -8.278767640749186E+06,
2460812.500000000, A.D. 2025-May-17 00:00:00.0000, -4.015892919260422E+08, -2.013209316611246E+08, -8.277813518366456E+06,
2460819.500000000, A.D. 2025-May-24 00:00:00.0000, -3.962513771732473E+08, -2.100184404889565E+08, -8.272428106491134E+06,
2460826.500000000, A.D. 2025-May-31 00:00:00.0000, -3.907003054093602E+08, -2.186030001729995E+08, -8.262591848423108E+06,
2460833.500000000, A.D. 2025-Jun-07 00:00:00.0000, -3.849379792455599E+08, -2.270693882036047E+08, -8.248287322947130E+06,
2460840.500000000, A.D. 2025-Jun-14 00:00:00.0000, -3.789664252513115E+08, -2.354123846684153E+08, -8.229499048001423E+06,
2460847.500000000, A.D. 2025-Jun-21 00:00:00.0000, -3.727877977387269E+08, -2.436267756015480E+08, -8.206213412670732E+06,
2460854.500000000, A.D. 2025-Jun-28 00:00:00.0000, -3.664043803268896E+08, -2.517073572760349E+08, -8.178418880166546E+06,
2460861.500000000, A.D. 2025-Jul-05 00:00:00.0000, -3.598185867974903E+08, -2.596489392849601E+08, -8.146106146168903E+06,
2460868.500000000, A.D. 2025-Jul-12 00:00:00.0000, -3.530329624255679E+08, -2.674463472183221E+08, -8.109268208819866E+06,
2460875.500000000, A.D. 2025-Jul-19 00:00:00.0000, -3.460501855882691E+08, -2.750944255133711E+08, -8.067900414628699E+06,
2460882.500000000, A.D. 2025-Jul-26 00:00:00.0000, -3.388730694348599E+08, -2.825880405382571E+08, -8.022000504119605E+06,
2460889.500000000, A.D. 2025-Aug-02 00:00:00.0000, -3.315045635462030E+08, -2.899220838902112E+08, -7.971568661324620E+06,
2460896.500000000, A.D. 2025-Aug-09 00:00:00.0000, -3.239477555535507E+08, -2.970914759249662E+08, -7.916607570216313E+06,
2460903.500000000, A.D. 2025-Aug-16 00:00:00.0000, -3.162058726323382E+08, -3.040911695821858E+08, -7.857122489986151E+06,
2460910.500000000, A.D. 2025-Aug-23 00:00:00.0000, -3.082822825704932E+08, -3.109161544916478E+08, -7.793121374301642E+06,
2460917.500000000, A.D. 2025-Aug-30 00:00:00.0000, -3.001804940740380E+08, -3.175614606469217E+08, -7.724615005961359E+06,
2460924.500000000, A.D. 2025-Sep-06 00:00:00.0000, -2.919041577190171E+08, -3.240221606463845E+08, -7.651616934705541E+06,
2460931.500000000, A.D. 2025-Sep-13 00:00:00.0000, -2.834570692105518E+08, -3.302933729846459E+08, -7.574143267519057E+06,
2460938.500000000, A.D. 2025-Sep-20 00:00:00.0000, -2.748431716666057E+08, -3.363702680400937E+08, -7.492212745797306E+06,
2460945.500000000, A.D. 2025-Sep-27 00:00:00.0000, -2.660665558596269E+08, -3.422480736475267E+08, -7.405846951819614E+06,
2460952.500000000, A.D. 2025-Oct-04 00:00:00.0000, -2.571314604235275E+08, -3.479220797151253E+08, -7.315070415017098E+06,
2460959.500000000, A.D. 2025-Oct-11 00:00:00.0000, -2.480422723891010E+08, -3.533876428261582E+08, -7.219910660445511E+06,
2460966.500000000, A.D. 2025-Oct-18 00:00:00.0000, -2.388035277528664E+08, -3.586401910971591E+08, -7.120398247713000E+06,
2460973.500000000, A.D. 2025-Oct-25 00:00:00.0000, -2.294199119284371E+08, -3.636752292792081E+08, -7.016566812228933E+06,
2460980.500000000, A.D. 2025-Nov-01 00:00:00.0000, -2.198962600301366E+08, -3.684883440843862E+08, -6.908453111139268E+06,
2460987.500000000, A.D. 2025-Nov-08 00:00:00.0000, -2.102375569438217E+08, -3.730752097655639E+08, -6.796097079664379E+06,
2460994.500000000, A.D. 2025-Nov-15 00:00:00.0000, -2.004489370265244E+08, -3.774315940038555E+08, -6.679541916149318E+06,
2461001.500000000, A.D. 2025-Nov-22 00:00:00.0000, -1.905356830216944E+08, -3.815533638785431E+08, -6.558834214727104E+06,
2461008.500000000, A.D. 2025-Nov-29 00:00:00.0000, -1.805032243328860E+08, -3.854364907780457E+08, -6.434024038678199E+06,
2461015.500000000, A.D. 2025-Dec-06 00:00:00.0000, -1.703571369226100E+08, -3.890770543793474E+08, -6.305164736548156E+06,
2461022.500000000, A.D. 2025-Dec-13 00:00:00.0000, -1.601031443911439E+08, -3.924712490561745E+08, -6.172312816068947E+06,
2461029.500000000, A.D. 2025-Dec-20 00:00:00.0000, -1.497471167304747E+08, -3.956153916825730E+08, -6.035528112453073E+06,
2461036.500000000, A.D. 2025-Dec-27 00:00:00.0000, -1.392950678151807E+08, -3.985059282292700E+08, -5.894873940483302E+06,
2461043.500000000, A.D. 2026-Jan-03 00:00:00.0000, -1.287531530765620E+08, -4.011394397564353E+08, -5.750417146627963E+06,
2461050.500000000, A.D. 2026-Jan-10 00:00:00.0000, -1.181276672378185E+08, -4.035126484705282E+08, -5.602228126619220E+06,
2461057.500000000, A.D. 2026-Jan-17 00:00:00.0000, -1.074250418669612E+08, -4.056224239257138E+08, -5.450380837214291E+06,
2461064.500000000, A.D. 2026-Jan-24 00:00:00.0000, -9.665184266029041E+07, -4.074657893350799E+08, -5.294952807247967E+06,
2461071.500000000, A.D. 2026-Jan-31 00:00:00.0000, -8.581476642477790E+07, -4.090399279854475E+08, -5.136025150394589E+06,
2461078.500000000, A.D. 2026-Feb-07 00:00:00.0000, -7.492063769029422E+07, -4.103421897977637E+08, -4.973682589469641E+06,
2461085.500000000, A.D. 2026-Feb-14 00:00:00.0000, -6.397640469144154E+07, -4.113700980313233E+08, -4.808013516174018E+06,
2461092.500000000, A.D. 2026-Feb-21 00:00:00.0000, -5.298913432456411E+07, -4.121213555364241E+08, -4.639110074140370E+06,
2461099.500000000, A.D. 2026-Feb-28 00:00:00.0000, -4.196600715847601E+07, -4.125938493823343E+08, -4.467068071050346E+06,
2461106.500000000, A.D. 2026-Mar-07 00:00:00.0000, -3.091431455143248E+07, -4.127856557893816E+08, -4.291986690049380E+06,
2461113.500000000, A.D. 2026-Mar-14 00:00:00.0000, -1.984145509275573E+07, -4.126950476770322E+08, -4.113968445496857E+06,
2461120.500000000, A.D. 2026-Mar-21 00:00:00.0000, -8.754928582038702E+06, -4.123205019105752E+08, -3.933119309460759E+06,
2461127.500000000, A.D. 2026-Mar-28 00:00:00.0000, 2.337670446702798E+06, -4.116607051975543E+08, -3.749548740170181E+06,
2461134.500000000, A.D. 2026-Apr-04 00:00:00.0000, 1.342865905281473E+07, -4.107145595777993E+08, -3.563369635519654E+06,
2461141.500000000, A.D. 2026-Apr-11 00:00:00.0000, 2.451027234191232E+07, -4.094811878442148E+08, -3.374698265729874E+06,
2461148.500000000, A.D. 2026-Apr-18 00:00:00.0000, 3.557467020111766E+07, -4.079599388773263E+08, -3.183654199942142E+06,
2461155.500000000, A.D. 2026-Apr-25 00:00:00.0000, 4.661394435938124E+07, -4.061503928544451E+08, -2.990360229474813E+06,
2461162.500000000, A.D. 2026-May-02 00:00:00.0000, 5.762012579962949E+07, -4.040523663388116E+08, -2.794942292777866E+06,
2461169.500000000, A.D. 2026-May-09 00:00:00.0000, 6.858519264184225E+07, -4.016659172916113E+08, -2.597529418686390E+06,
2461176.500000000, A.D. 2026-May-16 00:00:00.0000, 7.950107886718272E+07, -3.989913498458265E+08, -2.398253711030453E+06,
2461183.500000000, A.D. 2026-May-23 00:00:00.0000, 9.035968392467591E+07, -3.960292177967203E+08, -2.197250295544446E+06,
2461190.500000000, A.D. 2026-May-30 00:00:00.0000, 1.011528811293177E+08, -3.927803264655461E+08, -1.994657012238681E+06,
2461197.500000000, A.D. 2026-Jun-06 00:00:00.0000, 1.118725245202194E+08, -3.892457361849167E+08, -1.790614091855198E+06,
2461204.500000000, A.D. 2026-Jun-13 00:00:00.0000, 1.225104578300399E+08, -3.854267671832305E+08, -1.585264136724323E+06,
2461211.500000000, A.D. 2026-Jun-20 00:00:00.0000, 1.330585250479319E+08, -3.813250029212134E+08, -1.378752121203482E+06,
2461218.500000000, A.D. 2026-Jun-27 00:00:00.0000, 1.435085808580073E+08, -3.769422922002990E+08, -1.171225283976346E+06,
2461225.500000000, A.D. 2026-Jul-04 00:00:00.0000, 1.538525009313070E+08, -3.722807507976583E+08, -9.628329758938551E+05,
2461232.500000000, A.D. 2026-Jul-11 00:00:00.0000, 1.640821923013094E+08, -3.673427627402694E+08, -7.537264978399277E+05,
2461239.500000000, A.D. 2026-Jul-18 00:00:00.0000, 1.741896038898779E+08, -3.621309811733836E+08, -5.440589354883581E+05,
2461246.500000000, A.D. 2026-Jul-25 00:00:00.0000, 1.841667371808541E+08, -3.566483288022130E+08, -3.339849935281426E+05,
2461253.500000000, A.D. 2026-Aug-01 00:00:00.0000, 1.940056570618731E+08, -3.508979979375945E+08, -1.236608383387178E+05,
2461260.500000000, A.D. 2026-Aug-08 00:00:00.0000, 2.036985030221474E+08, -3.448834501672187E+08, 8.675602772375941E+04,
2461267.500000000, A.D. 2026-Aug-15 00:00:00.0000, 2.132375010933222E+08, -3.386084151924756E+08, 2.971068589144796E+05,
2461274.500000000, A.D. 2026-Aug-22 00:00:00.0000, 2.226149757413863E+08, -3.320768876039054E+08, 5.072318950378299E+05,
2461281.500000000, A.D. 2026-Aug-29 00:00:00.0000, 2.318233593853184E+08, -3.252931229627169E+08, 7.169708241358697E+05,
2461288.500000000, A.D. 2026-Sep-05 00:00:00.0000, 2.408552016385486E+08, -3.182616360494015E+08, 9.261630480705351E+05,
$$EOE